{"spkid": "20444584", "covariance": {"epoch": "2457097.5", "labels": ["e", "q", "tp", "node", "peri", "i"], "data": [["2.755460623365271E-16", "-4.540377558552577E-16", "1.274382650432852E-13", "-7.370406819502083E-14", "1.267403512078341E-13", "1.965246496470992E-14"], ["-4.540377558552577E-16", "7.523814918514191E-16", "-2.22722519824878E-13", "1.119506159750071E-13", "-2.005533821908879E-13", "-2.988043419647967E-14"], ["1.274382650432852E-13", "-2.22722519824878E-13", "9.79146648065443E-11", "-1.12539427863756E-11", "4.008597234845291E-11", "2.997348703958018E-12"], ["-7.370406819502083E-14", "1.119506159750071E-13", "-1.12539427863756E-11", "6.607603310886816E-10", "-6.554107986030713E-10", "-1.885166594240103E-10"], ["1.267403512078341E-13", "-2.005533821908879E-13", "4.008597234845291E-11", "-6.554107986030713E-10", "6.621956971803726E-10", "1.865753737601052E-10"], ["1.965246496470992E-14", "-2.988043419647967E-14", "2.997348703958018E-12", "-1.885166594240103E-10", "1.865753737601052E-10", "6.525343490992945E-11"]], "elements": [{"label": "e", "name": "e", "sigma": 1.65995801855507e-08, "units": null, "value": ".5386448497400536", "title": "eccentricity"}, {"label": "q", "title": "perihelion distance", "value": ".6881459675641534", "units": "au", "name": "q", "sigma": 2.74295733078628e-08}, {"title": "time of perihelion passage", "value": "2456793.787453170257", "units": "TDB", "sigma": 9.89518391979372e-06, "name": "tp", "label": "tp"}, {"label": "node", "units": "deg", "title": "longitude of the ascending node", "value": "244.1687811979489", "sigma": 2.5705258821663e-05, "name": "om"}, {"label": "peri", "units": "deg", "title": "argument of perihelion", "value": "252.1277375216337", "name": "w", "sigma": 2.57331633729779e-05}, {"label": "i", "title": "inclination", "value": "4.723611619128758", "units": "deg", "name": "i", "sigma": 8.07795982349067e-06}]}, "elements": [{"label": "e", "name": "e", "sigma": "1.6591E-8", "units": null, "title": "eccentricity", "value": ".5390129526387066"}, {"label": "a", "units": "au", "title": "semi-major axis", "value": "1.493927125874181", "sigma": "7.2741E-9", "name": "a"}, {"units": "au", "title": "perihelion distance", "value": ".688681054729682", "name": "q", "sigma": "2.7292E-8", "label": "q"}, {"label": "i", "title": "inclination; angle with respect to x-y ecliptic plane", "value": "4.74474230067666", "units": "deg", "sigma": "8.0629E-6", "name": "i"}, {"label": "node", "name": "om", "sigma": "2.5393E-5", "units": "deg", "value": "243.9141250460614", "title": "longitude of the ascending node"}, {"label": "peri", "name": "w", "sigma": "2.5355E-5", "value": "252.3655522464163", "title": "argument of perihelion", "units": "deg"}, {"label": "M", "sigma": "1.2012E-5", "name": "ma", "units": "deg", "value": "219.8170540534059", "title": "mean anomaly"}, {"sigma": "2.4149E-5", "name": "tp", "value": "2461460.207940376130", "title": "time of perihelion passage", "units": "TDB", "label": "tp"}, {"name": "per", "sigma": "4.8712E-6", "units": "d", "title": "sidereal orbital period", "value": "666.9488781540211", "label": "period"}, {"title": "mean motion", "value": ".5397715054209354", "units": "deg/d", "name": "n", "sigma": "3.9423E-9", "label": "n"}, {"sigma": "1.1195E-8", "name": "ad", "value": "2.29917319701868", "title": "aphelion distance", "units": "au", "label": "Q"}], "epoch": "2461200.5"}